{
    "links": {
        "self": "http://www.neowsapp.com/rest/v1/neo/3614401?api_key=iIulBulltgU6a56xZRHN4H3l9WmuAYTsLGpBGhQ2"
    },
    "id": "3614401",
    "neo_reference_id": "3614401",
    "name": "(2012 UY136)",
    "designation": "2012 UY136",
    "nasa_jpl_url": "http://ssd.jpl.nasa.gov/sbdb.cgi?sstr=3614401",
    "absolute_magnitude_h": 26.6,
    "estimated_diameter": {
        "kilometers": {
            "estimated_diameter_min": 0.0127219879,
            "estimated_diameter_max": 0.0284472297
        },
        "meters": {
            "estimated_diameter_min": 12.7219878539,
            "estimated_diameter_max": 28.4472296503
        },
        "miles": {
            "estimated_diameter_min": 0.0079050743,
            "estimated_diameter_max": 0.0176762835
        },
        "feet": {
            "estimated_diameter_min": 41.7388066307,
            "estimated_diameter_max": 93.330808926
        }
    },
    "is_potentially_hazardous_asteroid": false,
    "close_approach_data": [
        {
            "close_approach_date": "1962-12-02",
            "close_approach_date_full": "1962-Dec-02 15:10",
            "epoch_date_close_approach": -223462200000,
            "relative_velocity": {
                "kilometers_per_second": "20.3879552253",
                "kilometers_per_hour": "73396.6388110354",
                "miles_per_hour": "45605.8170434458"
            },
            "miss_distance": {
                "astronomical": "0.4816759591",
                "lunar": "187.3719480899",
                "kilometers": "72057697.511567117",
                "miles": "44774577.0089635346"
            },
            "orbiting_body": "Earth"
        },
        {
            "close_approach_date": "2012-10-19",
            "close_approach_date_full": "2012-Oct-19 23:17",
            "epoch_date_close_approach": 1350688620000,
            "relative_velocity": {
                "kilometers_per_second": "6.4947928848",
                "kilometers_per_hour": "23381.2543851572",
                "miles_per_hour": "14528.2022039328"
            },
            "miss_distance": {
                "astronomical": "0.0214525134",
                "lunar": "8.3450277126",
                "kilometers": "3209250.310786458",
                "miles": "1994135.6738228004"
            },
            "orbiting_body": "Earth"
        },
        {
            "close_approach_date": "2062-12-02",
            "close_approach_date_full": "2062-Dec-02 03:59",
            "epoch_date_close_approach": 2932257540000,
            "relative_velocity": {
                "kilometers_per_second": "19.4464149627",
                "kilometers_per_hour": "70007.0938657182",
                "miles_per_hour": "43499.6856300625"
            },
            "miss_distance": {
                "astronomical": "0.4517748791",
                "lunar": "175.7404279699",
                "kilometers": "67584559.632867517",
                "miles": "41995098.0172930546"
            },
            "orbiting_body": "Earth"
        }
    ],
    "orbital_data": {
        "orbit_id": "6",
        "orbit_determination_date": "2019-07-16 06:15:01",
        "first_observation_date": "2012-10-23",
        "last_observation_date": "2012-10-24",
        "data_arc_in_days": 1,
        "observations_used": 24,
        "orbit_uncertainty": "7",
        "minimum_orbit_intersection": ".0159639",
        "jupiter_tisserand_invariant": "4.051",
        "epoch_osculation": "2459000.5",
        "eccentricity": ".416459469949334",
        "semi_major_axis": "1.730729334370233",
        "inclination": "4.941776967816821",
        "ascending_node_longitude": "205.5812539681421",
        "orbital_period": "831.6530007230967",
        "perihelion_distance": "1.009950713152642",
        "perihelion_argument": "170.3054122915287",
        "aphelion_distance": "2.451507955587825",
        "perihelion_time": "2458706.745779296699",
        "mean_anomaly": "127.158225078537",
        "mean_motion": ".4328728444278936",
        "equinox": "J2000",
        "orbit_class": {
            "orbit_class_type": "APO",
            "orbit_class_description": "Near-Earth asteroid orbits which cross the Earth’s orbit similar to that of 1862 Apollo",
            "orbit_class_range": "a (semi-major axis) > 1.0 AU; q (perihelion) < 1.017 AU"
        }
    },
    "is_sentry_object": false
}